<?xml version="1.0" encoding="UTF-8"?>
<kml xmlns="http://www.opengis.net/kml/2.2" xmlns:gx="http://www.google.com/kml/ext/2.2" xmlns:kml="http://www.opengis.net/kml/2.2" xmlns:atom="http://www.w3.org/2005/Atom">
<GroundOverlay>
	<name>Home</name>
	<Icon>
		<href>E:/projects/esp32/HaptiCap_V2_FE/src/app/media/mapsMock/png/home.png</href>
		<viewBoundScale>0.75</viewBoundScale>
	</Icon>
	<LatLonBox>
		<north>52.19302302418645</north>
		<south>52.18883808386967</south>
		<east>4.677696840085838</east>
		<west>4.666780341885721</west>
	</LatLonBox>
</GroundOverlay>
</kml>
